KUIPER-00061            
1 64521U 25134X   25310.66419453  .00005777  00000+0  78624-3 0  9997
2 64521  51.9020  52.1014 0005333 226.9549 133.0967 14.79923507 21910
KUIPER-00062            
1 64522U 25134Y   25310.67733265  .00006861  00000+0  82704-3 0  9998
2 64522  51.8989  58.2871 0006918 248.8972 111.1253 14.84771965 21847
KUIPER-00063            
1 64523U 25134Z   25310.71460744  .00005776  00000+0  78584-3 0  9998
2 64523  51.9020  61.8081 0003715 179.9300 180.1663 14.79941127 21797
KUIPER-00064            
1 64524U 25134AA  25310.70748922  .00007755  00000+0  10550-2 0  9992
2 64524  51.9026  59.1529 0005722 308.4498  51.5950 14.79525490 21834
KUIPER-00065            
1 64525U 25134AB  25310.60746891  .00006187  00000+0  83855-3 0  9992
2 64525  51.9023  64.4742 0010783 235.3959 124.5987 14.79972170 21732
KUIPER-00066            
1 64526U 25134AC  25310.67368017  .00025467  00000+0  12083-2 0  9996
2 64526  51.8903  44.4414 0002670 277.0967  82.9709 15.19104727 22034
KUIPER-00069            
1 64816U 25151A   25310.75001156 -.00952373  00000+0 -86057-1 0  9992
2 64816  51.8996 104.8775 0006593 224.7045 256.6814 14.97757463  4812
KUIPER-00070            
1 64817U 25151B   25310.54643900  .00001015  00000+0  16263-3 0  9999
2 64817  51.8959 130.1043 0010160 200.9557 159.0990 14.79843319 18183
