<?xml version="1.0" encoding="UTF-8"?>
<ndm xmlns:xsi="http://www.w3.org/2001/XMLSchema-instance" xsi:noNamespaceSchemaLocation="https://sanaregistry.org/r/ndmxml_unqualified/ndmxml-2.0.0-master-2.0.xsd">
<omm id="CCSDS_OMM_VERS" version="2.0">
<header><CREATION_DATE/><ORIGINATOR/></header><body><segment><metadata><OBJECT_NAME>KUIPER-00061</OBJECT_NAME><OBJECT_ID>2025-134X</OBJECT_ID><CENTER_NAME>EARTH</CENTER_NAME><REF_FRAME>TEME</REF_FRAME><TIME_SYSTEM>UTC</TIME_SYSTEM><MEAN_ELEMENT_THEORY>SGP4</MEAN_ELEMENT_THEORY></metadata><data><meanElements><EPOCH>2025-11-06T15:56:26.407392</EPOCH><MEAN_MOTION>14.79923507</MEAN_MOTION><ECCENTRICITY>.0005333</ECCENTRICITY><INCLINATION>51.9020</INCLINATION><RA_OF_ASC_NODE>52.1014</RA_OF_ASC_NODE><ARG_OF_PERICENTER>226.9549</ARG_OF_PERICENTER><MEAN_ANOMALY>133.0967</MEAN_ANOMALY></meanElements><tleParameters><EPHEMERIS_TYPE>0</EPHEMERIS_TYPE><CLASSIFICATION_TYPE>U</CLASSIFICATION_TYPE><NORAD_CAT_ID>64521</NORAD_CAT_ID><ELEMENT_SET_NO>999</ELEMENT_SET_NO><REV_AT_EPOCH>2191</REV_AT_EPOCH><BSTAR>.78624E-3</BSTAR><MEAN_MOTION_DOT>.5777E-4</MEAN_MOTION_DOT><MEAN_MOTION_DDOT>0</MEAN_MOTION_DDOT></tleParameters></data></segment></body></omm>
<omm id="CCSDS_OMM_VERS" version="2.0">
<header><CREATION_DATE/><ORIGINATOR/></header><body><segment><metadata><OBJECT_NAME>KUIPER-00062</OBJECT_NAME><OBJECT_ID>2025-134Y</OBJECT_ID><CENTER_NAME>EARTH</CENTER_NAME><REF_FRAME>TEME</REF_FRAME><TIME_SYSTEM>UTC</TIME_SYSTEM><MEAN_ELEMENT_THEORY>SGP4</MEAN_ELEMENT_THEORY></metadata><data><meanElements><EPOCH>2025-11-06T16:15:21.540960</EPOCH><MEAN_MOTION>14.84771965</MEAN_MOTION><ECCENTRICITY>.0006918</ECCENTRICITY><INCLINATION>51.8989</INCLINATION><RA_OF_ASC_NODE>58.2871</RA_OF_ASC_NODE><ARG_OF_PERICENTER>248.8972</ARG_OF_PERICENTER><MEAN_ANOMALY>111.1253</MEAN_ANOMALY></meanElements><tleParameters><EPHEMERIS_TYPE>0</EPHEMERIS_TYPE><CLASSIFICATION_TYPE>U</CLASSIFICATION_TYPE><NORAD_CAT_ID>64522</NORAD_CAT_ID><ELEMENT_SET_NO>999</ELEMENT_SET_NO><REV_AT_EPOCH>2184</REV_AT_EPOCH><BSTAR>.82704E-3</BSTAR><MEAN_MOTION_DOT>.6861E-4</MEAN_MOTION_DOT><MEAN_MOTION_DDOT>0</MEAN_MOTION_DDOT></tleParameters></data></segment></body></omm>
<omm id="CCSDS_OMM_VERS" version="2.0">
<header><CREATION_DATE/><ORIGINATOR/></header><body><segment><metadata><OBJECT_NAME>KUIPER-00063</OBJECT_NAME><OBJECT_ID>2025-134Z</OBJECT_ID><CENTER_NAME>EARTH</CENTER_NAME><REF_FRAME>TEME</REF_FRAME><TIME_SYSTEM>UTC</TIME_SYSTEM><MEAN_ELEMENT_THEORY>SGP4</MEAN_ELEMENT_THEORY></metadata><data><meanElements><EPOCH>2025-11-06T17:09:02.082816</EPOCH><MEAN_MOTION>14.79941127</MEAN_MOTION><ECCENTRICITY>.0003715</ECCENTRICITY><INCLINATION>51.9020</INCLINATION><RA_OF_ASC_NODE>61.8081</RA_OF_ASC_NODE><ARG_OF_PERICENTER>179.9300</ARG_OF_PERICENTER><MEAN_ANOMALY>180.1663</MEAN_ANOMALY></meanElements><tleParameters><EPHEMERIS_TYPE>0</EPHEMERIS_TYPE><CLASSIFICATION_TYPE>U</CLASSIFICATION_TYPE><NORAD_CAT_ID>64523</NORAD_CAT_ID><ELEMENT_SET_NO>999</ELEMENT_SET_NO><REV_AT_EPOCH>2179</REV_AT_EPOCH><BSTAR>.78584E-3</BSTAR><MEAN_MOTION_DOT>.5776E-4</MEAN_MOTION_DOT><MEAN_MOTION_DDOT>0</MEAN_MOTION_DDOT></tleParameters></data></segment></body></omm>
<omm id="CCSDS_OMM_VERS" version="2.0">
<header><CREATION_DATE/><ORIGINATOR/></header><body><segment><metadata><OBJECT_NAME>KUIPER-00064</OBJECT_NAME><OBJECT_ID>2025-134AA</OBJECT_ID><CENTER_NAME>EARTH</CENTER_NAME><REF_FRAME>TEME</REF_FRAME><TIME_SYSTEM>UTC</TIME_SYSTEM><MEAN_ELEMENT_THEORY>SGP4</MEAN_ELEMENT_THEORY></metadata><data><meanElements><EPOCH>2025-11-06T16:58:47.068608</EPOCH><MEAN_MOTION>14.79525490</MEAN_MOTION><ECCENTRICITY>.0005722</ECCENTRICITY><INCLINATION>51.9026</INCLINATION><RA_OF_ASC_NODE>59.1529</RA_OF_ASC_NODE><ARG_OF_PERICENTER>308.4498</ARG_OF_PERICENTER><MEAN_ANOMALY>51.5950</MEAN_ANOMALY></meanElements><tleParameters><EPHEMERIS_TYPE>0</EPHEMERIS_TYPE><CLASSIFICATION_TYPE>U</CLASSIFICATION_TYPE><NORAD_CAT_ID>64524</NORAD_CAT_ID><ELEMENT_SET_NO>999</ELEMENT_SET_NO><REV_AT_EPOCH>2183</REV_AT_EPOCH><BSTAR>.1055E-2</BSTAR><MEAN_MOTION_DOT>.7755E-4</MEAN_MOTION_DOT><MEAN_MOTION_DDOT>0</MEAN_MOTION_DDOT></tleParameters></data></segment></body></omm>
<omm id="CCSDS_OMM_VERS" version="2.0">
<header><CREATION_DATE/><ORIGINATOR/></header><body><segment><metadata><OBJECT_NAME>KUIPER-00065</OBJECT_NAME><OBJECT_ID>2025-134AB</OBJECT_ID><CENTER_NAME>EARTH</CENTER_NAME><REF_FRAME>TEME</REF_FRAME><TIME_SYSTEM>UTC</TIME_SYSTEM><MEAN_ELEMENT_THEORY>SGP4</MEAN_ELEMENT_THEORY></metadata><data><meanElements><EPOCH>2025-11-06T14:34:45.313824</EPOCH><MEAN_MOTION>14.79972170</MEAN_MOTION><ECCENTRICITY>.0010783</ECCENTRICITY><INCLINATION>51.9023</INCLINATION><RA_OF_ASC_NODE>64.4742</RA_OF_ASC_NODE><ARG_OF_PERICENTER>235.3959</ARG_OF_PERICENTER><MEAN_ANOMALY>124.5987</MEAN_ANOMALY></meanElements><tleParameters><EPHEMERIS_TYPE>0</EPHEMERIS_TYPE><CLASSIFICATION_TYPE>U</CLASSIFICATION_TYPE><NORAD_CAT_ID>64525</NORAD_CAT_ID><ELEMENT_SET_NO>999</ELEMENT_SET_NO><REV_AT_EPOCH>2173</REV_AT_EPOCH><BSTAR>.83855E-3</BSTAR><MEAN_MOTION_DOT>.6187E-4</MEAN_MOTION_DOT><MEAN_MOTION_DDOT>0</MEAN_MOTION_DDOT></tleParameters></data></segment></body></omm>
<omm id="CCSDS_OMM_VERS" version="2.0">
<header><CREATION_DATE/><ORIGINATOR/></header><body><segment><metadata><OBJECT_NAME>KUIPER-00066</OBJECT_NAME><OBJECT_ID>2025-134AC</OBJECT_ID><CENTER_NAME>EARTH</CENTER_NAME><REF_FRAME>TEME</REF_FRAME><TIME_SYSTEM>UTC</TIME_SYSTEM><MEAN_ELEMENT_THEORY>SGP4</MEAN_ELEMENT_THEORY></metadata><data><meanElements><EPOCH>2025-11-06T16:10:05.966688</EPOCH><MEAN_MOTION>15.19104727</MEAN_MOTION><ECCENTRICITY>.000267</ECCENTRICITY><INCLINATION>51.8903</INCLINATION><RA_OF_ASC_NODE>44.4414</RA_OF_ASC_NODE><ARG_OF_PERICENTER>277.0967</ARG_OF_PERICENTER><MEAN_ANOMALY>82.9709</MEAN_ANOMALY></meanElements><tleParameters><EPHEMERIS_TYPE>0</EPHEMERIS_TYPE><CLASSIFICATION_TYPE>U</CLASSIFICATION_TYPE><NORAD_CAT_ID>64526</NORAD_CAT_ID><ELEMENT_SET_NO>999</ELEMENT_SET_NO><REV_AT_EPOCH>2203</REV_AT_EPOCH><BSTAR>.12083E-2</BSTAR><MEAN_MOTION_DOT>.25467E-3</MEAN_MOTION_DOT><MEAN_MOTION_DDOT>0</MEAN_MOTION_DDOT></tleParameters></data></segment></body></omm>
<omm id="CCSDS_OMM_VERS" version="2.0">
<header><CREATION_DATE/><ORIGINATOR/></header><body><segment><metadata><OBJECT_NAME>KUIPER-00069</OBJECT_NAME><OBJECT_ID>2025-151A</OBJECT_ID><CENTER_NAME>EARTH</CENTER_NAME><REF_FRAME>TEME</REF_FRAME><TIME_SYSTEM>UTC</TIME_SYSTEM><MEAN_ELEMENT_THEORY>SGP4</MEAN_ELEMENT_THEORY></metadata><data><meanElements><EPOCH>2025-11-06T18:00:00.998784</EPOCH><MEAN_MOTION>14.97757463</MEAN_MOTION><ECCENTRICITY>.0006593</ECCENTRICITY><INCLINATION>51.8996</INCLINATION><RA_OF_ASC_NODE>104.8775</RA_OF_ASC_NODE><ARG_OF_PERICENTER>224.7045</ARG_OF_PERICENTER><MEAN_ANOMALY>256.6814</MEAN_ANOMALY></meanElements><tleParameters><EPHEMERIS_TYPE>0</EPHEMERIS_TYPE><CLASSIFICATION_TYPE>U</CLASSIFICATION_TYPE><NORAD_CAT_ID>64816</NORAD_CAT_ID><ELEMENT_SET_NO>999</ELEMENT_SET_NO><REV_AT_EPOCH>481</REV_AT_EPOCH><BSTAR>-.86057E-1</BSTAR><MEAN_MOTION_DOT>-.952373E-2</MEAN_MOTION_DOT><MEAN_MOTION_DDOT>0</MEAN_MOTION_DDOT></tleParameters></data></segment></body></omm>
<omm id="CCSDS_OMM_VERS" version="2.0">
<header><CREATION_DATE/><ORIGINATOR/></header><body><segment><metadata><OBJECT_NAME>KUIPER-00070</OBJECT_NAME><OBJECT_ID>2025-151B</OBJECT_ID><CENTER_NAME>EARTH</CENTER_NAME><REF_FRAME>TEME</REF_FRAME><TIME_SYSTEM>UTC</TIME_SYSTEM><MEAN_ELEMENT_THEORY>SGP4</MEAN_ELEMENT_THEORY></metadata><data><meanElements><EPOCH>2025-11-06T13:06:52.329600</EPOCH><MEAN_MOTION>14.79843319</MEAN_MOTION><ECCENTRICITY>.001016</ECCENTRICITY><INCLINATION>51.8959</INCLINATION><RA_OF_ASC_NODE>130.1043</RA_OF_ASC_NODE><ARG_OF_PERICENTER>200.9557</ARG_OF_PERICENTER><MEAN_ANOMALY>159.0990</MEAN_ANOMALY></meanElements><tleParameters><EPHEMERIS_TYPE>0</EPHEMERIS_TYPE><CLASSIFICATION_TYPE>U</CLASSIFICATION_TYPE><NORAD_CAT_ID>64817</NORAD_CAT_ID><ELEMENT_SET_NO>999</ELEMENT_SET_NO><REV_AT_EPOCH>1818</REV_AT_EPOCH><BSTAR>.16263E-3</BSTAR><MEAN_MOTION_DOT>.1015E-4</MEAN_MOTION_DOT><MEAN_MOTION_DDOT>0</MEAN_MOTION_DDOT></tleParameters></data></segment></body></omm>

</ndm>
